ORBCOMM FM33            
1 25983U 99065D   25292.96097544  .00002381  00000+0  78848-3 0  9991
2 25983  45.0262 125.6216 0007952 333.7176  26.3269 14.40311794354053
ORBCOMM FM36            
1 25984U 99065E   25292.11503931  .00002552  00000+0  87390-3 0  9993
2 25984  45.0380 223.4647 0002586 244.2144 115.8438 14.38478445352266
ORBCOMM FM35            
1 25985U 99065F   25292.11537707  .00001990  00000+0  70664-3 0  9993
2 25985  45.0391 229.4943 0005498 304.9600  55.0732 14.37408062352618
ORBCOMM FM34            
1 25986U 99065G   25292.84522427  .00001740  00000+0  62404-3 0  9993
2 25986  45.0382 226.4955 0004721 271.7434  88.2874 14.37393320352832
ORBCOMM FM38            
1 33060U 08031A   25292.77828939  .00004710  00000+0  61517-3 0  9991
2 33060  48.4383  81.2735 0005430 221.7222 138.3281 14.81896610933229
ORBCOMM FM41            
1 33061U 08031B   25292.98059589  .00004436  00000+0  58692-3 0  9997
2 33061  48.4417  88.5251 0004541 208.3936 303.9362 14.81463464932738
ORBCOMM FM29            
1 33062U 08031C   25292.95341146  .00004369  00000+0  57674-3 0  9992
2 33062  48.4366  96.3041 0006237 205.8199 295.5380 14.81587906932647
ORBCOMM FM39            
1 33063U 08031D   25292.94708168  .00003621  00000+0  50016-3 0  9996
2 33063  48.4375 122.0014 0006845 176.3786 183.7179 14.80073738932279
